SYN-90133
1 90133U 25001A   25362.69323976  .00000000  00000-0  00000-0 0  9997
2 90133  53.0000  90.0000 0001000   0.0000 308.5714 15.05490646    15
SYN-90134
1 90134U 25001A   25362.69323976  .00000000  00000-0  00000-0 0  9998
2 90134  53.0000  95.0000 0001000   0.0000   0.0000 15.05490646    13
SYN-90135
1 90135U 25001A   25362.69323976  .00000000  00000-0  00000-0 0  9999
2 90135  53.0000  95.0000 0001000   0.0000  51.4286 15.05490646    10
SYN-90136
1 90136U 25001A   25362.69323976  .00000000  00000-0  00000-0 0  9990
2 90136  53.0000  95.0000 0001000   0.0000 102.8571 15.05490646    19
SYN-90137
1 90137U 25001A   25362.69323976  .00000000  00000-0  00000-0 0  9991
2 90137  53.0000  95.0000 0001000   0.0000 154.2857 15.05490646    18
SYN-90138
1 90138U 25001A   25362.69323976  .00000000  00000-0  00000-0 0  9992
2 90138  53.0000  95.0000 0001000   0.0000 205.7143 15.05490646    19
SYN-90139
1 90139U 25001A   25362.69323976  .00000000  00000-0  00000-0 0  9993
2 90139  53.0000  95.0000 0001000   0.0000 257.1429 15.05490646    18
SYN-90140
1 90140U 25001A   25362.69323976  .00000000  00000-0  00000-0 0  9995
2 90140  53.0000  95.0000 0001000   0.0000 308.5714 15.05490646    18
SYN-90141
1 90141U 25001A   25362.69323976  .00000000  00000-0  00000-0 0  9996
2 90141  53.0000 100.0000 0001000   0.0000   0.0000 15.05490646    18
SYN-90142
1 90142U 25001A   25362.69323976  .00000000  00000-0  00000-0 0  9997
2 90142  53.0000 100.0000 0001000   0.0000  51.4286 15.05490646    15
SYN-90143
1 90143U 25001A   25362.69323976  .00000000  00000-0  00000-0 0  9998
2 90143  53.0000 100.0000 0001000   0.0000 102.8571 15.05490646    14
SYN-90144
1 90144U 25001A   25362.69323976  .00000000  00000-0  00000-0 0  9999
2 90144  53.0000 100.0000 0001000   0.0000 154.2857 15.05490646    13
SYN-90145
1 90145U 25001A   25362.69323976  .00000000  00000-0  00000-0 0  9990
2 90145  53.0000 100.0000 0001000   0.0000 205.7143 15.05490646    14
SYN-90146
1 90146U 25001A   25362.69323976  .00000000  00000-0  00000-0 0  9991
2 90146  53.0000 100.0000 0001000   0.0000 257.1429 15.05490646    13
SYN-90147
1 90147U 25001A   25362.69323976  .00000000  00000-0  00000-0 0  9992
2 90147  53.0000 100.0000 0001000   0.0000 308.5714 15.05490646    12
SYN-90148
1 90148U 25001A   25362.69323976  .00000000  00000-0  00000-0 0  9993
2 90148  53.0000 105.0000 0001000   0.0000   0.0000 15.05490646    10
SYN-90149
1 90149U 25001A   25362.69323976  .00000000  00000-0  00000-0 0  9994
2 90149  53.0000 105.0000 0001000   0.0000  51.4286 15.05490646    17
SYN-90150
1 90150U 25001A   25362.69323976  .00000000  00000-0  00000-0 0  9996
2 90150  53.0000 105.0000 0001000   0.0000 102.8571 15.05490646    17
SYN-90151
1 90151U 25001A   25362.69323976  .00000000  00000-0  00000-0 0  9997
2 90151  53.0000 105.0000 0001000   0.0000 154.2857 15.05490646    16
SYN-90152
1 90152U 25001A   25362.69323976  .00000000  00000-0  00000-0 0  9998
2 90152  53.0000 105.0000 0001000   0.0000 205.7143 15.05490646    17
SYN-90153
1 90153U 25001A   25362.69323976  .00000000  00000-0  00000-0 0  9999
2 90153  53.0000 105.0000 0001000   0.0000 257.1429 15.05490646    16
SYN-90154
1 90154U 25001A   25362.69323976  .00000000  00000-0  00000-0 0  9990
2 90154  53.0000 105.0000 0001000   0.0000 308.5714 15.05490646    15
SYN-90155
1 90155U 25001A   25362.69323976  .00000000  00000-0  00000-0 0  9991
2 90155  53.0000 110.0000 0001000   0.0000   0.0000 15.05490646    14
SYN-90156
1 90156U 25001A   25362.69323976  .00000000  00000-0  00000-0 0  9992
2 90156  53.0000 110.0000 0001000   0.0000  51.4286 15.05490646    11
SYN-90157
1 90157U 25001A   25362.69323976  .00000000  00000-0  00000-0 0  9993
2 90157  53.0000 110.0000 0001000   0.0000 102.8571 15.05490646    10
SYN-90158
1 90158U 25001A   25362.69323976  .00000000  00000-0  00000-0 0  9994
2 90158  53.0000 110.0000 0001000   0.0000 154.2857 15.05490646    19
SYN-90159
1 90159U 25001A   25362.69323976  .00000000  00000-0  00000-0 0  9995
2 90159  53.0000 110.0000 0001000   0.0000 205.7143 15.05490646    10
SYN-90160
1 90160U 25001A   25362.69323976  .00000000  00000-0  00000-0 0  9997
2 90160  53.0000 110.0000 0001000   0.0000 257.1429 15.05490646    10
SYN-90161
1 90161U 25001A   25362.69323976  .00000000  00000-0  00000-0 0  9998
2 90161  53.0000 110.0000 0001000   0.0000 308.5714 15.05490646    19
SYN-90162
1 90162U 25001A   25362.69323976  .00000000  00000-0  00000-0 0  9999
2 90162  53.0000 115.0000 0001000   0.0000   0.0000 15.05490646    17
SYN-90163
1 90163U 25001A   25362.69323976  .00000000  00000-0  00000-0 0  9990
2 90163  53.0000 115.0000 0001000   0.0000  51.4286 15.05490646    14
SYN-90164
1 90164U 25001A   25362.69323976  .00000000  00000-0  00000-0 0  9991
2 90164  53.0000 115.0000 0001000   0.0000 102.8571 15.05490646    13
SYN-90165
1 90165U 25001A   25362.69323976  .00000000  00000-0  00000-0 0  9992
2 90165  53.0000 115.0000 0001000   0.0000 154.2857 15.05490646    12
SYN-90166
1 90166U 25001A   25362.69323976  .00000000  00000-0  00000-0 0  9993
2 90166  53.0000 115.0000 0001000   0.0000 205.7143 15.05490646    13
SYN-90167
1 90167U 25001A   25362.69323976  .00000000  00000-0  00000-0 0  9994
2 90167  53.0000 115.0000 0001000   0.0000 257.1429 15.05490646    12
SYN-90168
1 90168U 25001A   25362.69323976  .00000000  00000-0  00000-0 0  9995
2 90168  53.0000 115.0000 0001000   0.0000 308.5714 15.05490646    11
SYN-90169
1 90169U 25001A   25362.69323976  .00000000  00000-0  00000-0 0  9996
2 90169  53.0000 120.0000 0001000   0.0000   0.0000 15.05490646    10
SYN-90170
1 90170U 25001A   25362.69323976  .00000000  00000-0  00000-0 0  9998
2 90170  53.0000 120.0000 0001000   0.0000  51.4286 15.05490646    18
SYN-90171
1 90171U 25001A   25362.69323976  .00000000  00000-0  00000-0 0  9999
2 90171  53.0000 120.0000 0001000   0.0000 102.8571 15.05490646    17
SYN-90172
1 90172U 25001A   25362.69323976  .00000000  00000-0  00000-0 0  9990
2 90172  53.0000 120.0000 0001000   0.0000 154.2857 15.05490646    16
SYN-90173
1 90173U 25001A   25362.69323976  .00000000  00000-0  00000-0 0  9991
2 90173  53.0000 120.0000 0001000   0.0000 205.7143 15.05490646    17
SYN-90174
1 90174U 25001A   25362.69323976  .00000000  00000-0  00000-0 0  9992
2 90174  53.0000 120.0000 0001000   0.0000 257.1429 15.05490646    16
SYN-90175
1 90175U 25001A   25362.69323976  .00000000  00000-0  00000-0 0  9993
2 90175  53.0000 120.0000 0001000   0.0000 308.5714 15.05490646    15
SYN-90176
1 90176U 25001A   25362.69323976  .00000000  00000-0  00000-0 0  9994
2 90176  53.0000 125.0000 0001000   0.0000   0.0000 15.05490646    13
SYN-90177
1 90177U 25001A   25362.69323976  .00000000  00000-0  00000-0 0  9995
2 90177  53.0000 125.0000 0001000   0.0000  51.4286 15.05490646    10
SYN-90178
1 90178U 25001A   25362.69323976  .00000000  00000-0  00000-0 0  9996
2 90178  53.0000 125.0000 0001000   0.0000 102.8571 15.05490646    19
SYN-90179
1 90179U 25001A   25362.69323976  .00000000  00000-0  00000-0 0  9997
2 90179  53.0000 125.0000 0001000   0.0000 154.2857 15.05490646    18
SYN-90180
1 90180U 25001A   25362.69323976  .00000000  00000-0  00000-0 0  9999
2 90180  53.0000 125.0000 0001000   0.0000 205.7143 15.05490646    10
SYN-90181
1 90181U 25001A   25362.69323976  .00000000  00000-0  00000-0 0  9990
2 90181  53.0000 125.0000 0001000   0.0000 257.1429 15.05490646    19
SYN-90182
1 90182U 25001A   25362.69323976  .00000000  00000-0  00000-0 0  9991
2 90182  53.0000 125.0000 0001000   0.0000 308.5714 15.05490646    18
SYN-90183
1 90183U 25001A   25362.69323976  .00000000  00000-0  00000-0 0  9992
2 90183  53.0000 130.0000 0001000   0.0000   0.0000 15.05490646    17
SYN-90184
1 90184U 25001A   25362.69323976  .00000000  00000-0  00000-0 0  9993
2 90184  53.0000 130.0000 0001000   0.0000  51.4286 15.05490646    14
SYN-90185
1 90185U 25001A   25362.69323976  .00000000  00000-0  00000-0 0  9994
2 90185  53.0000 130.0000 0001000   0.0000 102.8571 15.05490646    13
SYN-90186
1 90186U 25001A   25362.69323976  .00000000  00000-0  00000-0 0  9995
2 90186  53.0000 130.0000 0001000   0.0000 154.2857 15.05490646    12
SYN-90187
1 90187U 25001A   25362.69323976  .00000000  00000-0  00000-0 0  9996
2 90187  53.0000 130.0000 0001000   0.0000 205.7143 15.05490646    13
SYN-90188
1 90188U 25001A   25362.69323976  .00000000  00000-0  00000-0 0  9997
2 90188  53.0000 130.0000 0001000   0.0000 257.1429 15.05490646    12
SYN-90189
1 90189U 25001A   25362.69323976  .00000000  00000-0  00000-0 0  9998
2 90189  53.0000 130.0000 0001000   0.0000 308.5714 15.05490646    11
SYN-90190
1 90190U 25001A   25362.69323976  .00000000  00000-0  00000-0 0  9990
2 90190  53.0000 135.0000 0001000   0.0000   0.0000 15.05490646    10
SYN-90191
1 90191U 25001A   25362.69323976  .00000000  00000-0  00000-0 0  9991
2 90191  53.0000 135.0000 0001000   0.0000  51.4286 15.05490646    17
SYN-90192
1 90192U 25001A   25362.69323976  .00000000  00000-0  00000-0 0  9992
2 90192  53.0000 135.0000 0001000   0.0000 102.8571 15.05490646    16
SYN-90193
1 90193U 25001A   25362.69323976  .00000000  00000-0  00000-0 0  9993
2 90193  53.0000 135.0000 0001000   0.0000 154.2857 15.05490646    15
SYN-90194
1 90194U 25001A   25362.69323976  .00000000  00000-0  00000-0 0  9994
2 90194  53.0000 135.0000 0001000   0.0000 205.7143 15.05490646    16
SYN-90195
1 90195U 25001A   25362.69323976  .00000000  00000-0  00000-0 0  9995
2 90195  53.0000 135.0000 0001000   0.0000 257.1429 15.05490646    15
SYN-90196
1 90196U 25001A   25362.69323976  .00000000  00000-0  00000-0 0  9996
2 90196  53.0000 135.0000 0001000   0.0000 308.5714 15.05490646    14
SYN-90197
1 90197U 25001A   25362.69323976  .00000000  00000-0  00000-0 0  9997
2 90197  53.0000 140.0000 0001000   0.0000   0.0000 15.05490646    13
SYN-90198
1 90198U 25001A   25362.69323976  .00000000  00000-0  00000-0 0  9998
2 90198  53.0000 140.0000 0001000   0.0000  51.4286 15.05490646    10
